IRIDIUM 133 [+]         
1 42955U 17061A   17346.21614018  .00000081  00000-0  21708-4 0  9995
2 42955  86.3997 244.3674 0002635  96.1187 264.0309 14.34218196  9166
